FENGYUN 1C DEB          
1 33660U 99025DEV 17345.21229177  .00000146  00000-0  14594-3 0  9991
2 33660  98.6552  75.3498 0110739   5.7101  24.1766 13.89040585504543
